IRIDIUM 106             
1 41917U 17003A   25243.41660052  .00000039  00000+0  70216-5 0  9995
2 41917  86.3990 209.5654 0002633  92.4310 267.7188 14.34217965451677
IRIDIUM 103             
1 41918U 17003B   25243.40391375 -.00000031  00000+0 -18217-4 0  9990
2 41918  86.3993 209.4719 0001806  99.7047 260.4353 14.34217456451691
IRIDIUM 109             
1 41919U 17003C   25243.41025708  .00000057  00000+0  13190-4 0  9997
2 41919  86.3992 209.5235 0002090  86.5586 273.5849 14.34217975451661
IRIDIUM 102             
1 41920U 17003D   25243.44831194 -.00000005  00000+0 -87594-5 0  9991
2 41920  86.3992 209.4377 0002084  82.3325 277.8107 14.34217711451759
IRIDIUM 105             
1 41921U 17003E   25243.55858963 -.00000087  00000+0 -38158-4 0  9998
2 41921  86.4044 177.8967 0002073  87.2867 272.8566 14.34217060453624
IRIDIUM 104             
1 41922U 17003F   25243.46098668  .00000148  00000+0  45720-4 0  9996
2 41922  86.3992 209.4704 0001854  86.5934 273.5474 14.34217387451749
IRIDIUM 114             
1 41923U 17003G   25243.39757127  .00000395  00000+0  13404-3 0  9998
2 41923  86.3987 209.4809 0002151  91.9886 268.1557 14.34218345451711
IRIDIUM 108             
1 41924U 17003H   25243.35609363 -.00000027  00000+0 -16546-4 0  9998
2 41924  86.4039 177.8777 0002300  82.2527 277.8930 14.34217504453567
